CCSDS_OMM_VERS,COMMENT,CREATION_DATE,ORIGINATOR,OBJECT_NAME,OBJECT_ID,CENTER_NAME,REF_FRAME,TIME_SYSTEM,MEAN_ELEMENT_THEORY,EPOCH,MEAN_MOTION,ECCENTRICITY,INCLINATION,RA_OF_ASC_NODE,ARG_OF_PERICENTER,MEAN_ANOMALY,EPHEMERIS_TYPE,CLASSIFICATION_TYPE,NORAD_CAT_ID,ELEMENT_SET_NO,REV_AT_EPOCH,BSTAR,MEAN_MOTION_DOT,MEAN_MOTION_DDOT,SEMIMAJOR_AXIS,PERIOD,APOAPSIS,PERIAPSIS,OBJECT_TYPE,RCS_SIZE,COUNTRY_CODE,LAUNCH_DATE,SITE,DECAY_DATE,FILE,GP_ID,TLE_LINE0,TLE_LINE1,TLE_LINE2,NORAD_KEY,JCAT,DeepCat,Satcat,Piece,Active,Type,Name,LDate,Parent,Owner,State,SDate,ExpandedStatus,DDate,ODate,Period,Perigee,PF,Apogee,AF,Inc,IF,OpOrbit,SATCAT_KEY
3.0,GENERATED VIA SPACE-TRACK.ORG API,2026-05-06T14:46:56,18 SPCS,EUTE 1-F4 (ECS 4),1987-078B,EARTH,TEME,UTC,SGP4,2026-05-06T07:11:52.351008,0.98690532,0.0011764,13.8587,342.4206,37.5205,142.182,0,U,18351,999,12634,0.00000000000000,-0.00000146,0.0000000000000,42613.923,1459.107,36285.919,36185.657,PAYLOAD,LARGE,EUTE,1987-09-16,FRGUI,,5177302,322301169,0 EUTE 1-F4 (ECS 4),1 18351U 87078B   26126.29991147 -.00000146  00000-0  00000+0 0  9998,2 18351  13.8587 342.4206 0011764  37.5205 142.1820  0.98690532126340,18351,S18351,-,18351,1987-078B,P,P,Eutelsat I F-4,1987 Sep 16,S18352,EUTSA,F,1987 Sep 16 0107,In Earth orbit,-,2026 May  4 ,    1459.118 ,   36185, ,   36286, , 13.86 , ,GEO/ID,18351
3.0,GENERATED VIA SPACE-TRACK.ORG API,2026-05-06T14:46:56,18 SPCS,EUTE 1-F4 (ECS 4),1987-078B,EARTH,TEME,UTC,SGP4,2026-05-06T07:11:52.351008,0.98690532,0.0011764,13.8587,342.4206,37.5205,142.182,0,U,18351,999,12634,0.00000000000000,-0.00000146,0.0000000000000,42613.923,1459.107,36285.919,36185.657,PAYLOAD,LARGE,EUTE,1987-09-16,FRGUI,,5177302,322301169,0 EUTE 1-F4 (ECS 4),1 18351U 87078B   26126.29991147 -.00000146  00000-0  00000+0 0  9998,2 18351  13.8587 342.4206 0011764  37.5205 142.1820  0.98690532126340,18351,A04456,-,18351,1987-078,C,C AM,Mage 2,1987 Sep 16,S18351,EUTSA,I-EUT,1987 Sep 17 1347,Attached to S18351 Eutelsat I F-4,-,-,-,-,-,-,-,-,-,-,18351
3.0,GENERATED VIA SPACE-TRACK.ORG API,2026-05-06T02:32:52,18 SPCS,RADUGA 29,1993-013A,EARTH,TEME,UTC,SGP4,2026-05-05T13:07:51.708000,1.00367468,0.00034316,13.8635,345.4353,176.2174,1.891,0,U,22557,999,12125,0.00000000000000,-0.00000344,0.0000000000000,42137.93,1434.728,35774.255,35745.335,PAYLOAD,LARGE,CIS,1993-03-25,TTMTR,,5176277,322215208,0 RADUGA 29,1 22557U 93013A   26125.54712625 -.00000344  00000-0  00000-0 0  9997,2 22557  13.8635 345.4353 0003432 176.2174   1.8910  1.00367468121251,22557,S22557,-,22557,1993-013A,P,P,Raduga,1993 Mar 25,S22624,VVKOV,RU,1993 Mar 25 0904?,In Earth orbit,-,2026 May  5 ,    1434.725 ,   35745, ,   35774, , 13.86 , ,GEO/ID,22557
3.0,GENERATED VIA SPACE-TRACK.ORG API,2026-05-06T10:08:52,18 SPCS,USA 93,1993-046A,EARTH,TEME,UTC,SGP4,2026-05-05T21:45:25.225344,0.99053241,0.00019529,13.8714,14.4851,27.1219,152.3317,0,U,22719,999,2477,0.00000000000000,-0.00000165,0.0000000000000,42509.831,1453.764,36139.998,36123.394,PAYLOAD,,US,1993-07-19,AFETR,,5176958,322264453,0 USA 93,1 22719U 93046A   26125.90654196 -.00000165  00000-0  00000-0 0  9992,2 22719  13.8714  14.4851 0001953  27.1219 152.3317  0.99053241 24775,22719,S22719,-,22719,1993-046A,P,P ------c,DSCS III B-9,1993 Jul 19,S22738,SFSSC/DISA,US,1993 Jul 22 1900?,In Earth orbit,-,2026 May  4 ,    1453.767 ,   36123, ,   36140, , 13.87 , ,GEO/ID,22719
3.0,GENERATED VIA SPACE-TRACK.ORG API,2026-05-06T14:56:52,18 SPCS,COSMOS 2282,1994-038A,EARTH,TEME,UTC,SGP4,2026-05-06T08:53:10.553856,1.00263879,0.0005493,13.8768,353.0156,118.8629,70.8661,0,U,23168,999,11658,0.00000000000000,0.00000058,0.0000000000000,42166.948,1436.21,35811.976,35765.651,PAYLOAD,LARGE,CIS,1994-07-06,TTMTR,,5177497,322305579,0 COSMOS 2282,1 23168U 94038A   26126.37026104  .00000058  00000-0  00000+0 0  9996,2 23168  13.8768 353.0156 0005493 118.8629  70.8661  1.00263879116589,23168,S23168,-,23168,1994-038A,P,P,Kosmos-2282,1994 Jul  6,S23171,PVO,RU,1994 Jul  7 1250?,In Earth orbit,-,2026 May  4 ,    1436.218 ,   35765, ,   35812, , 13.88 , ,GEO/I,23168
3.0,GENERATED VIA SPACE-TRACK.ORG API,2026-05-06T14:56:52,18 SPCS,GOES 9,1995-025A,EARTH,TEME,UTC,SGP4,2026-05-06T02:14:38.704128,0.98800496,0.0002851,13.9262,14.8633,174.3169,15.9608,0,U,23581,999,11234,0.00000000000000,-0.00000186,0.0000000000000,42582.298,1457.483,36216.303,36192.022,PAYLOAD,LARGE,US,1995-05-23,AFETR,,5177512,322305764,0 GOES 9,1 23581U 95025A   26126.09350352 -.00000186  00000-0  00000+0 0  9999,2 23581  13.9262  14.8633 0002851 174.3169  15.9608  0.98800496112340,23581,S23581,-,23581,1995-025A,P,P,GOES 9,1995 May 23,S23582,NOAA,US,1995 May 23 0621,In Earth orbit,-,2026 May  5 ,    1457.477 ,   36191, ,   36216, , 13.93 , ,GEO/ID,23581
3.0,GENERATED VIA SPACE-TRACK.ORG API,2026-05-06T10:08:52,18 SPCS,RADUGA 1-5,2000-049A,EARTH,TEME,UTC,SGP4,2026-05-06T03:18:46.617984,1.00218631,0.00018979,13.9439,8.382,39.7753,318.7627,0,U,26477,999,9399,0.00000000000000,-0.00000257,0.0000000000000,42179.64,1436.859,35809.51,35793.499,PAYLOAD,LARGE,CIS,2000-08-28,TTMTR,,5176958,322266061,0 RADUGA 1-5,1 26477U 00049A   26126.13803956 -.00000257  00000-0  00000-0 0  9996,2 26477  13.9439   8.3820 0001898  39.7753 318.7627  1.00218631 93994,26477,S26477,-,26477,2000-049A,P,P,Raduga-1,2000 Aug 28,S26480,VVKOV,RU,2000 Aug 29 0249,In Earth orbit,-,2026 May  5 ,    1436.854 ,   35793, ,   35809, , 13.94 , ,GEO/ID,26477
3.0,GENERATED VIA SPACE-TRACK.ORG API,2026-05-06T14:56:52,18 SPCS,COSMOS 2350,1998-025A,EARTH,TEME,UTC,SGP4,2026-05-06T11:18:06.763104,1.00286693,0.0004982,13.9486,4.1555,174.2685,290.5644,0,U,25315,999,10259,0.00000000000000,-0.00000108,0.0000000000000,42160.553,1435.883,35803.423,35761.414,PAYLOAD,LARGE,CIS,1998-04-29,TTMTR,,5177557,322306892,0 COSMOS 2350,1 25315U 98025A   26126.47091161 -.00000108  00000-0  00000+0 0  9995,2 25315  13.9486   4.1555 0004982 174.2685 290.5644  1.00286693102597,25315,S25315,-,25315,1998-025A,P,P,Kosmos-2350,1998 Apr 29,S25318,PVO,RU,1998 Apr 29 1130?,In Earth orbit,-,2026 May  4 ,    1435.884 ,   35761, ,   35803, , 13.95 , ,GEO/I,25315
3.0,GENERATED VIA SPACE-TRACK.ORG API,2026-05-06T14:46:56,18 SPCS,FLTSATCOM 5,1981-073A,EARTH,TEME,UTC,SGP4,2026-05-06T07:59:38.747040,0.98607775,0.0007786,13.9648,308.1331,164.5028,26.044,0,U,12635,999,13265,0.00000000000000,-0.00000245,0.0000000000000,42637.762,1460.331,36292.825,36226.429,PAYLOAD,LARGE,US,1981-08-06,AFETR,,5177232,322299759,0 FLTSATCOM 5,1 12635U 81073A   26126.33308735 -.00000245  00000-0  00000+0 0  9996,2 12635  13.9648 308.1331 0007786 164.5028  26.0440  0.98607775132655,12635,S12635,-,12635,1981-073A,P,P,FLTSATCOM F5,1981 Aug  6,S12778,SPAWAR/SFSSC,US,1981 Aug  6 0845,In Earth orbit,-,2026 May  4 ,    1460.330 ,   36226, ,   36292, , 13.97 , ,GEO/ID,12635
3.0,GENERATED VIA SPACE-TRACK.ORG API,2026-05-06T14:46:56,18 SPCS,FLTSATCOM 5,1981-073A,EARTH,TEME,UTC,SGP4,2026-05-06T07:59:38.747040,0.98607775,0.0007786,13.9648,308.1331,164.5028,26.044,0,U,12635,999,13265,0.00000000000000,-0.00000245,0.0000000000000,42637.762,1460.331,36292.825,36226.429,PAYLOAD,LARGE,US,1981-08-06,AFETR,,5177232,322299759,0 FLTSATCOM 5,1 12635U 81073A   26126.33308735 -.00000245  00000-0  00000+0 0  9996,2 12635  13.9648 308.1331 0007786 164.5028  26.0440  0.98607775132655,12635,A03358,-,12635,1981-073,C,C AM,Star 37F S/N 19018-4,1981 Aug  6,S12635,SFSSC,US,1981 Aug 10 0146?,Attached to S12635 FLTSATCOM F5,-,-,-,-,-,-,-,-,-,-,12635
3.0,GENERATED VIA SPACE-TRACK.ORG API,2026-05-06T02:32:52,18 SPCS,COSMOS 2371,2000-036A,EARTH,TEME,UTC,SGP4,2026-05-05T19:52:43.620096,1.00268395,0.00015024,13.9698,7.8296,181.4707,43.0974,0,U,26394,999,9461,0.00000000000000,-0.00000061,0.0000000000000,42165.682,1436.145,35793.882,35781.212,PAYLOAD,LARGE,CIS,2000-07-04,TTMTR,,5176277,322216844,0 COSMOS 2371,1 26394U 00036A   26125.82828264 -.00000061  00000-0  00000-0 0  9997,2 26394  13.9698   7.8296 0001502 181.4707  43.0974  1.00268395 94611,26394,S26394,-,26394,2000-036A,P,P,Kosmos-2371,2000 Jul  4,S26397,VVKOV,RU,2000 Jul  5 0620,In Earth orbit,-,2026 May  4 ,    1436.147 ,   35781, ,   35793, , 13.97 , ,GEO/I,26394
3.0,GENERATED VIA SPACE-TRACK.ORG API,2026-05-06T10:08:52,18 SPCS,MORELOS 1,1985-048B,EARTH,TEME,UTC,SGP4,2026-05-06T01:35:26.530656,0.99464877,0.00026561,13.9749,343.2834,130.1139,224.3729,0,U,15824,999,11682,0.00000000000000,-0.00000081,0.0000000000000,42392.465,1447.747,36025.59,36003.071,PAYLOAD,LARGE,MEX,1985-06-17,AFETR,,5176958,322262460,0 MORELOS 1,1 15824U 85048B   26126.06627929 -.00000081  00000-0  00000-0 0  9993,2 15824  13.9749 343.2834 0002656 130.1139 224.3729  0.99464877116820,15824,S15824,-,15824,1985-048B,P,P ---S-,Morelos 1,1985 Jun 17,S15832,AEMX,MX,1985 Jun 17 2026,In Earth orbit,-,2026 May  5 ,    1447.743 ,   36003, ,   36025, , 13.98 , ,GEO/ID,15824
3.0,GENERATED VIA SPACE-TRACK.ORG API,2026-05-06T10:08:52,18 SPCS,MORELOS 1,1985-048B,EARTH,TEME,UTC,SGP4,2026-05-06T01:35:26.530656,0.99464877,0.00026561,13.9749,343.2834,130.1139,224.3729,0,U,15824,999,11682,0.00000000000000,-0.00000081,0.0000000000000,42392.465,1447.747,36025.59,36003.071,PAYLOAD,LARGE,MEX,1985-06-17,AFETR,,5176958,322262460,0 MORELOS 1,1 15824U 85048B   26126.06627929 -.00000081  00000-0  00000-0 0  9993,2 15824  13.9749 343.2834 0002656 130.1139 224.3729  0.99464877116820,15824,A04078,-,15824,1985-048,C,C AM,Star 30BP,1985 Jun 17,S15824,AEMX,MX,1985 Jun 18 2316,Attached to S15824 Morelos 1,-,-,-,-,-,-,-,-,-,-,15824
